[{"OBJECT_NAME":"STARLINK-35872","OBJECT_ID":"2025-268Z","EPOCH":"2025-12-06T14:00:01.999872","MEAN_MOTION":15.62106655,"ECCENTRICITY":0.00014197,"INCLINATION":42.9999,"RA_OF_ASC_NODE":157.2252,"ARG_OF_PERICENTER":258.013,"MEAN_ANOMALY":343.6185,"EPHEMERIS_TYPE":0,"CLASSIFICATION_TYPE":"U","NORAD_CAT_ID":66580,"ELEMENT_SET_NO":999,"REV_AT_EPOCH":368,"BSTAR":-0.025245476,"MEAN_MOTION_DOT":-0.01998914,"MEAN_MOTION_DDOT":0},{"OBJECT_NAME":"STARLINK-35744","OBJECT_ID":"2025-268AA","EPOCH":"2025-12-06T14:00:01.999872","MEAN_MOTION":15.62105341,"ECCENTRICITY":0.00015333,"INCLINATION":42.9998,"RA_OF_ASC_NODE":157.2196,"ARG_OF_PERICENTER":259.438,"MEAN_ANOMALY":344.1097,"EPHEMERIS_TYPE":0,"CLASSIFICATION_TYPE":"U","NORAD_CAT_ID":66581,"ELEMENT_SET_NO":999,"REV_AT_EPOCH":363,"BSTAR":-0.02521126,"MEAN_MOTION_DOT":-0.01996533,"MEAN_MOTION_DDOT":0},{"OBJECT_NAME":"STARLINK-35746","OBJECT_ID":"2025-268AB","EPOCH":"2025-12-06T14:00:01.999872","MEAN_MOTION":15.62106265,"ECCENTRICITY":0.00014645,"INCLINATION":42.9993,"RA_OF_ASC_NODE":157.2146,"ARG_OF_PERICENTER":259.7665,"MEAN_ANOMALY":345.7001,"EPHEMERIS_TYPE":0,"CLASSIFICATION_TYPE":"U","NORAD_CAT_ID":66582,"ELEMENT_SET_NO":999,"REV_AT_EPOCH":368,"BSTAR":-0.025252918,"MEAN_MOTION_DOT":-0.01999438,"MEAN_MOTION_DDOT":0},{"OBJECT_NAME":"STARLINK-35941","OBJECT_ID":"2025-268AC","EPOCH":"2025-12-06T14:00:01.999872","MEAN_MOTION":15.62104737,"ECCENTRICITY":0.00015157,"INCLINATION":42.9993,"RA_OF_ASC_NODE":157.2099,"ARG_OF_PERICENTER":256.6938,"MEAN_ANOMALY":350.6887,"EPHEMERIS_TYPE":0,"CLASSIFICATION_TYPE":"U","NORAD_CAT_ID":66583,"ELEMENT_SET_NO":999,"REV_AT_EPOCH":368,"BSTAR":-0.025203187,"MEAN_MOTION_DOT":-0.01995918,"MEAN_MOTION_DDOT":0},{"OBJECT_NAME":"STARLINK-35939","OBJECT_ID":"2025-268AD","EPOCH":"2025-12-06T14:00:01.999872","MEAN_MOTION":15.62104734,"ECCENTRICITY":0.00015894,"INCLINATION":42.9993,"RA_OF_ASC_NODE":157.2055,"ARG_OF_PERICENTER":258.7349,"MEAN_ANOMALY":350.5639,"EPHEMERIS_TYPE":0,"CLASSIFICATION_TYPE":"U","NORAD_CAT_ID":66584,"ELEMENT_SET_NO":999,"REV_AT_EPOCH":368,"BSTAR":-0.025197315,"MEAN_MOTION_DOT":-0.01995566,"MEAN_MOTION_DDOT":0},{"OBJECT_NAME":"STARLINK-35963","OBJECT_ID":"2025-268AE","EPOCH":"2025-12-06T14:00:01.999872","MEAN_MOTION":15.62102908,"ECCENTRICITY":0.00015061,"INCLINATION":42.9995,"RA_OF_ASC_NODE":157.2006,"ARG_OF_PERICENTER":258.0582,"MEAN_ANOMALY":353.1622,"EPHEMERIS_TYPE":0,"CLASSIFICATION_TYPE":"U","NORAD_CAT_ID":66585,"ELEMENT_SET_NO":999,"REV_AT_EPOCH":368,"BSTAR":-0.025198757,"MEAN_MOTION_DOT":-0.01995477,"MEAN_MOTION_DDOT":0},{"OBJECT_NAME":"STARLINK-36076","OBJECT_ID":"2025-270A","EPOCH":"2025-12-06T14:00:01.999872","MEAN_MOTION":15.68359515,"ECCENTRICITY":0.00014528,"INCLINATION":42.999,"RA_OF_ASC_NODE":229.0695,"ARG_OF_PERICENTER":248.2727,"MEAN_ANOMALY":158.1199,"EPHEMERIS_TYPE":0,"CLASSIFICATION_TYPE":"U","NORAD_CAT_ID":66588,"ELEMENT_SET_NO":999,"REV_AT_EPOCH":341,"BSTAR":-0.016986865,"MEAN_MOTION_DOT":-0.01728176,"MEAN_MOTION_DDOT":0},{"OBJECT_NAME":"STARLINK-35447","OBJECT_ID":"2025-270B","EPOCH":"2025-12-06T14:00:01.999872","MEAN_MOTION":15.68502016,"ECCENTRICITY":0.00016635,"INCLINATION":42.999,"RA_OF_ASC_NODE":229.0599,"ARG_OF_PERICENTER":260.2639,"MEAN_ANOMALY":149.8513,"EPHEMERIS_TYPE":0,"CLASSIFICATION_TYPE":"U","NORAD_CAT_ID":66589,"ELEMENT_SET_NO":999,"REV_AT_EPOCH":352,"BSTAR":-0.018415149,"MEAN_MOTION_DOT":-0.01901733,"MEAN_MOTION_DDOT":0},{"OBJECT_NAME":"STARLINK-35429","OBJECT_ID":"2025-270C","EPOCH":"2025-12-06T14:00:01.999872","MEAN_MOTION":15.68503805,"ECCENTRICITY":0.00015279,"INCLINATION":42.999,"RA_OF_ASC_NODE":229.0648,"ARG_OF_PERICENTER":261.127,"MEAN_ANOMALY":147.0704,"EPHEMERIS_TYPE":0,"CLASSIFICATION_TYPE":"U","NORAD_CAT_ID":66590,"ELEMENT_SET_NO":999,"REV_AT_EPOCH":352,"BSTAR":-0.018436263,"MEAN_MOTION_DOT":-0.01903691,"MEAN_MOTION_DDOT":0},{"OBJECT_NAME":"STARLINK-36058","OBJECT_ID":"2025-270D","EPOCH":"2025-12-06T14:00:01.999872","MEAN_MOTION":15.68500388,"ECCENTRICITY":0.00016346,"INCLINATION":42.9989,"RA_OF_ASC_NODE":229.0551,"ARG_OF_PERICENTER":261.9652,"MEAN_ANOMALY":150.0677,"EPHEMERIS_TYPE":0,"CLASSIFICATION_TYPE":"U","NORAD_CAT_ID":66591,"ELEMENT_SET_NO":999,"REV_AT_EPOCH":341,"BSTAR":-0.01838474,"MEAN_MOTION_DOT":-0.01898813,"MEAN_MOTION_DDOT":0},{"OBJECT_NAME":"STARLINK-36066","OBJECT_ID":"2025-270E","EPOCH":"2025-12-06T14:00:01.999872","MEAN_MOTION":15.68503087,"ECCENTRICITY":0.00016313,"INCLINATION":42.9991,"RA_OF_ASC_NODE":229.0505,"ARG_OF_PERICENTER":260.8897,"MEAN_ANOMALY":153.057,"EPHEMERIS_TYPE":0,"CLASSIFICATION_TYPE":"U","NORAD_CAT_ID":66592,"ELEMENT_SET_NO":999,"REV_AT_EPOCH":331,"BSTAR":-0.018402699,"MEAN_MOTION_DOT":-0.01900644,"MEAN_MOTION_DDOT":0},{"OBJECT_NAME":"STARLINK-36031","OBJECT_ID":"2025-270F","EPOCH":"2025-12-06T14:00:01.999872","MEAN_MOTION":15.6850063,"ECCENTRICITY":0.00017412,"INCLINATION":42.999,"RA_OF_ASC_NODE":229.0457,"ARG_OF_PERICENTER":262.1878,"MEAN_ANOMALY":153.6751,"EPHEMERIS_TYPE":0,"CLASSIFICATION_TYPE":"U","NORAD_CAT_ID":66593,"ELEMENT_SET_NO":999,"REV_AT_EPOCH":341,"BSTAR":-0.01835075,"MEAN_MOTION_DOT":-0.01895795,"MEAN_MOTION_DDOT":0},{"OBJECT_NAME":"STARLINK-36032","OBJECT_ID":"2025-270G","EPOCH":"2025-12-06T14:00:01.999872","MEAN_MOTION":15.68503484,"ECCENTRICITY":0.00015654,"INCLINATION":42.9991,"RA_OF_ASC_NODE":229.0408,"ARG_OF_PERICENTER":261.4892,"MEAN_ANOMALY":156.2931,"EPHEMERIS_TYPE":0,"CLASSIFICATION_TYPE":"U","NORAD_CAT_ID":66594,"ELEMENT_SET_NO":999,"REV_AT_EPOCH":315,"BSTAR":-0.01842681,"MEAN_MOTION_DOT":-0.0190283,"MEAN_MOTION_DDOT":0},{"OBJECT_NAME":"STARLINK-35711","OBJECT_ID":"2025-270H","EPOCH":"2025-12-06T14:00:01.999872","MEAN_MOTION":15.68504419,"ECCENTRICITY":0.00016853,"INCLINATION":42.999,"RA_OF_ASC_NODE":229.0356,"ARG_OF_PERICENTER":262.2938,"MEAN_ANOMALY":157.4063,"EPHEMERIS_TYPE":0,"CLASSIFICATION_TYPE":"U","NORAD_CAT_ID":66595,"ELEMENT_SET_NO":999,"REV_AT_EPOCH":352,"BSTAR":-0.018453579,"MEAN_MOTION_DOT":-0.01905436,"MEAN_MOTION_DDOT":0},{"OBJECT_NAME":"STARLINK-35811","OBJECT_ID":"2025-270J","EPOCH":"2025-12-06T14:00:01.999872","MEAN_MOTION":15.68505779,"ECCENTRICITY":0.00015682,"INCLINATION":42.9989,"RA_OF_ASC_NODE":229.0311,"ARG_OF_PERICENTER":263.5543,"MEAN_ANOMALY":158.0608,"EPHEMERIS_TYPE":0,"CLASSIFICATION_TYPE":"U","NORAD_CAT_ID":66596,"ELEMENT_SET_NO":999,"REV_AT_EPOCH":352,"BSTAR":-0.018447324,"MEAN_MOTION_DOT":-0.01904871,"MEAN_MOTION_DDOT":0},{"OBJECT_NAME":"STARLINK-35820","OBJECT_ID":"2025-270K","EPOCH":"2025-12-06T14:00:01.999872","MEAN_MOTION":15.68500105,"ECCENTRICITY":0.00016049,"INCLINATION":42.999,"RA_OF_ASC_NODE":229.0261,"ARG_OF_PERICENTER":262.3069,"MEAN_ANOMALY":161.2289,"EPHEMERIS_TYPE":0,"CLASSIFICATION_TYPE":"U","NORAD_CAT_ID":66597,"ELEMENT_SET_NO":999,"REV_AT_EPOCH":352,"BSTAR":-0.01838525,"MEAN_MOTION_DOT":-0.01898818,"MEAN_MOTION_DDOT":0}]
