[{"norad_id":"66580","company":"STARLINK","tle_line2":"2 66580  42.9999 157.2252 0001419 258.0130 343.6185 15.62106655  3681","launch_date":"2025-11-21","type":"LEO","tle_line1":"1 66580U 25268Z   25340.58335648 -.01998914  00000+0 -25245-1 0  9995","satellite_name":"STARLINK-35872"},{"norad_id":"66581","company":"STARLINK","tle_line2":"2 66581  42.9998 157.2196 0001533 259.4380 344.1097 15.62105341  3631","launch_date":"2025-11-21","type":"LEO","tle_line1":"1 66581U 25268AA  25340.58335648 -.01996533  00000+0 -25211-1 0  9994","satellite_name":"STARLINK-35744"},{"norad_id":"66582","company":"STARLINK","tle_line2":"2 66582  42.9993 157.2146 0001464 259.7665 345.7001 15.62106265  3687","launch_date":"2025-11-21","type":"LEO","tle_line1":"1 66582U 25268AB  25340.58335648 -.01999438  00000+0 -25253-1 0  9998","satellite_name":"STARLINK-35746"},{"norad_id":"66583","company":"STARLINK","tle_line2":"2 66583  42.9993 157.2099 0001515 256.6938 350.6887 15.62104737  3680","launch_date":"2025-11-21","type":"LEO","tle_line1":"1 66583U 25268AC  25340.58335648 -.01995918  00000+0 -25203-1 0  9993","satellite_name":"STARLINK-35941"},{"norad_id":"66584","company":"STARLINK","tle_line2":"2 66584  42.9993 157.2055 0001589 258.7349 350.5639 15.62104734  3684","launch_date":"2025-11-21","type":"LEO","tle_line1":"1 66584U 25268AD  25340.58335648 -.01995566  00000+0 -25197-1 0  9995","satellite_name":"STARLINK-35939"},{"norad_id":"66585","company":"STARLINK","tle_line2":"2 66585  42.9995 157.2006 0001506 258.0582 353.1622 15.62102908  3686","launch_date":"2025-11-21","type":"LEO","tle_line1":"1 66585U 25268AE  25340.58335648 -.01995477  00000+0 -25199-1 0  9999","satellite_name":"STARLINK-35963"},{"norad_id":"66588","company":"STARLINK","tle_line2":"2 66588  42.9990 229.0695 0001452 248.2727 158.1199 15.68359515  3415","launch_date":"2025-11-22","type":"LEO","tle_line1":"1 66588U 25270A   25340.58335648 -.01728176  00000+0 -16987-1 0  9990","satellite_name":"STARLINK-36076"},{"norad_id":"66589","company":"STARLINK","tle_line2":"2 66589  42.9990 229.0599 0001663 260.2639 149.8513 15.68502016  3524","launch_date":"2025-11-22","type":"LEO","tle_line1":"1 66589U 25270B   25340.58335648 -.01901733  00000+0 -18415-1 0  9991","satellite_name":"STARLINK-35447"},{"norad_id":"66590","company":"STARLINK","tle_line2":"2 66590  42.9990 229.0648 0001527 261.1270 147.0704 15.68503805  3520","launch_date":"2025-11-22","type":"LEO","tle_line1":"1 66590U 25270C   25340.58335648 -.01903691  00000+0 -18436-1 0  9991","satellite_name":"STARLINK-35429"},{"norad_id":"66591","company":"STARLINK","tle_line2":"2 66591  42.9989 229.0551 0001634 261.9652 150.0677 15.68500388  3417","launch_date":"2025-11-22","type":"LEO","tle_line1":"1 66591U 25270D   25340.58335648 -.01898813  00000+0 -18385-1 0  9994","satellite_name":"STARLINK-36058"},{"norad_id":"66592","company":"STARLINK","tle_line2":"2 66592  42.9991 229.0505 0001631 260.8897 153.0570 15.68503087  3319","launch_date":"2025-11-22","type":"LEO","tle_line1":"1 66592U 25270E   25340.58335648 -.01900644  00000+0 -18403-1 0  9992","satellite_name":"STARLINK-36066"},{"norad_id":"66593","company":"STARLINK","tle_line2":"2 66593  42.9990 229.0457 0001741 262.1878 153.6751 15.68500630  3410","launch_date":"2025-11-22","type":"LEO","tle_line1":"1 66593U 25270F   25340.58335648 -.01895795  00000+0 -18351-1 0  9995","satellite_name":"STARLINK-36031"},{"norad_id":"66594","company":"STARLINK","tle_line2":"2 66594  42.9991 229.0408 0001565 261.4892 156.2931 15.68503484  3150","launch_date":"2025-11-22","type":"LEO","tle_line1":"1 66594U 25270G   25340.58335648 -.01902830  00000+0 -18427-1 0  9999","satellite_name":"STARLINK-36032"},{"norad_id":"66595","company":"STARLINK","tle_line2":"2 66595  42.9990 229.0356 0001685 262.2938 157.4063 15.68504419  3524","launch_date":"2025-11-22","type":"LEO","tle_line1":"1 66595U 25270H   25340.58335648 -.01905436  00000+0 -18454-1 0  9995","satellite_name":"STARLINK-35711"},{"norad_id":"66596","company":"STARLINK","tle_line2":"2 66596  42.9989 229.0311 0001568 263.5543 158.0608 15.68505779  3522","launch_date":"2025-11-22","type":"LEO","tle_line1":"1 66596U 25270J   25340.58335648 -.01904871  00000+0 -18447-1 0  9990","satellite_name":"STARLINK-35811"},{"norad_id":"66597","company":"STARLINK","tle_line2":"2 66597  42.9990 229.0261 0001604 262.3069 161.2289 15.68500105  3529","launch_date":"2025-11-22","type":"LEO","tle_line1":"1 66597U 25270K   25340.58335648 -.01898818  00000+0 -18385-1 0  9995","satellite_name":"STARLINK-35820"}]